STARLINK-33960          
1 63966U 25099Q   26068.32733710  .00028557  00000+0  10430-2 0  9999
2 63966  42.9956 178.0221 0000432 252.3904 107.6900 15.27588078 47287
KUIPER-00208            
1 67775U 26030M   26068.67231509  .00043852  00000+0  13883-2 0  9994
2 67775  51.8846 219.6993 0015525  57.3146 302.9333 15.32208734  5080
